ADRAS-J                 
1 58992U 24034A   24134.88286663  .00006108  00000+0  57270-3 0  9995
2 58992  98.2112 106.3641 0044795 159.5744 200.7278 14.93645524 12746
